{"type": "FeatureCollection", "features": [ {"type": "Feature", "properties": {"norad_id": 64902, "name": "CO3D 2", "group": "resource", "lat": -23.251860140109535, "lon": -107.19368992413281, "alt_km": 511.2269851300862, "timestamp": "2025-12-25T22:42:16.654490+00:00", "meta": {"OBJECT_NAME": "CO3D 2", "OBJECT_ID": "2025-156D", "EPOCH": "2025-12-25T18:39:12.283200", "MEAN_MOTION": 15.20195071, "ECCENTRICITY": 7.95e-05, "INCLINATION": 97.434, "RA_OF_ASC_NODE": 75.8561, "ARG_OF_PERICENTER": 61.7452, "MEAN_ANOMALY": 298.3863, "EPHEMERIS_TYPE": 0, "CLASSIFICATION_TYPE": "U", "NORAD_CAT_ID": 64902, "ELEMENT_SET_NO": 999, "REV_AT_EPOCH": 2318, "BSTAR": 0.00014512, "MEAN_MOTION_DOT": 3.075e-05, "MEAN_MOTION_DDOT": 0}, "tle": {"line1": "1 64902U 25156D   25359.77722550  .00003075  00000+0  14512-3 0  9999", "line2": "2 64902  97.4340  75.8561 0000795  61.7452 298.3863 15.20195071 23182"}}, "geometry": {"type": "Point", "coordinates": [-107.19368992413281, -23.251860140109535]}}, {"type": "Feature", "properties": {"norad_id": 64903, "name": "CO3D 1", "group": "resource", "lat": -22.42883020269156, "lon": -107.06703593193683, "alt_km": 511.10982634341235, "timestamp": "2025-12-25T22:42:16.654501+00:00", "meta": {"OBJECT_NAME": "CO3D 1", "OBJECT_ID": "2025-156E", "EPOCH": "2025-12-25T18:39:25.530912", "MEAN_MOTION": 15.20200313, "ECCENTRICITY": 8.7e-05, "INCLINATION": 97.4338, "RA_OF_ASC_NODE": 75.8561, "ARG_OF_PERICENTER": 71.2418, "MEAN_ANOMALY": 288.8912, "EPHEMERIS_TYPE": 0, "CLASSIFICATION_TYPE": "U", "NORAD_CAT_ID": 64903, "ELEMENT_SET_NO": 999, "REV_AT_EPOCH": 2318, "BSTAR": 0.00024745, "MEAN_MOTION_DOT": 5.293e-05, "MEAN_MOTION_DDOT": 0}, "tle": {"line1": "1 64903U 25156E   25359.77737883  .00005293  00000+0  24745-3 0  9998", "line2": "2 64903  97.4338  75.8561 0000870  71.2418 288.8912 15.20200313 23187"}}, "geometry": {"type": "Point", "coordinates": [-107.06703593193683, -22.42883020269156]}}, {"type": "Feature", "properties": {"norad_id": 66514, "name": "SENTINEL-6B", "group": "resource", "lat": 26.88483020843341, "lon": -58.02379178443424, "alt_km": 1338.6916368319535, "timestamp": "2025-12-25T22:42:16.654511+00:00", "meta": {"OBJECT_NAME": "SENTINEL-6B", "OBJECT_ID": "2025-264A", "EPOCH": "2025-12-25T18:10:28.373376", "MEAN_MOTION": 12.80929561, "ECCENTRICITY": 0.0007902, "INCLINATION": 66.0399, "RA_OF_ASC_NODE": 135.3964, "ARG_OF_PERICENTER": 269.9783, "MEAN_ANOMALY": 90.0326, "EPHEMERIS_TYPE": 0, "CLASSIFICATION_TYPE": "U", "NORAD_CAT_ID": 66514, "ELEMENT_SET_NO": 999, "REV_AT_EPOCH": 495, "BSTAR": 6.3135e-05, "MEAN_MOTION_DOT": -4.6e-07, "MEAN_MOTION_DDOT": 0}, "tle": {"line1": "1 66514U 25264A   25359.75727284 -.00000046  00000+0  63135-4 0  9999", "line2": "2 66514  66.0399 135.3964 0007902 269.9783  90.0326 12.80929561  4951"}}, "geometry": {"type": "Point", "coordinates": [-58.02379178443424, 26.88483020843341]}}]}